NORAD_CAT_ID,OBJECT_NAME,OBJECT_TYPE,EPOCH,MEAN_MOTION,ECCENTRICITY,INCLINATION,RA_OF_ASC_NODE,ARG_OF_PERICENTER,MEAN_ANOMALY,BSTAR,MEAN_MOTION_DOT,MEAN_MOTION_DDOT,TLE_LINE0,TLE_LINE1,TLE_LINE2,SEMIMAJOR_AXIS,PERIOD,APOGEE,PERIGEE,DECAYED
53932.0,STARLINK-4772,PAYLOAD,2024-08-09 17:39:57,15.08822532,0.0001326,53.218,9.2567,95.3931,264.7212,-0.00028306,-4.788e-05,0.0,0 STARLINK-4772,1 53932U 22119AY  24222.73608136 -.00004788  00000-0 -28306-3 0  9994,2 53932  53.2180   9.2567 0001326  95.3931 264.7212 15.08822532104515,6917.934,95.439,540.716,538.881,0.0
53932.0,STARLINK-4772,PAYLOAD,2024-08-10 14:19:57,15.088496,0.0001193,53.2175,5.3909,114.8595,245.2521,0.00042022,6.408e-05,0.0,0 STARLINK-4772,1 53932U 22119AY  24223.59719543  .00006408  00000-0  42022-3 0  9994,2 53932  53.2175   5.3909 0001193 114.8595 245.2521 15.08849600105075,6917.851,95.437,540.541,538.891,0.0
53932.0,STARLINK-4772,PAYLOAD,2024-08-10 19:06:06,15.08874859,0.0001376,53.218,4.4971,113.4566,246.6571,0.0013265,0.00020906,0.0,0 STARLINK-4772,1 53932U 22119AY  24223.79591281  .00020906  00000-0  13265-2 0  9998,2 53932  53.2180   4.4971 0001376 113.4566 246.6571 15.08874859104675,6917.774,95.435,540.591,538.687,0.0
53932.0,STARLINK-4772,PAYLOAD,2024-08-11 18:56:53,15.08843523,0.0002007,53.2179,0.039,97.9066,262.2154,0.0026097,0.00041495,0.0,0 STARLINK-4772,1 53932U 22119AY  24224.78951313  .00041495  00000-0  26097-2 0  9997,2 53932  53.2179   0.0390 0002007  97.9066 262.2154 15.08843523104825,6917.87,95.437,541.123,538.346,0.0
53932.0,STARLINK-4772,PAYLOAD,2024-08-12 09:15:21,15.08861862,0.0002235,53.2173,357.3615,102.029,258.0953,0.0014802,0.00023362,0.0,0 STARLINK-4772,1 53932U 22119AY  24225.38566983  .00023362  00000-0  14802-2 0  9993,2 53932  53.2173 357.3615 0002235 102.0290 258.0953 15.08861862104913,6917.814,95.436,541.225,538.132,0.0
53932.0,STARLINK-4772,PAYLOAD,2024-08-12 18:47:40,15.08851053,4.81e-05,53.2204,355.5762,63.4598,296.6443,0.0014116,0.00022256,0.0,0 STARLINK-4772,1 53932U 22119AY  24225.78310868  .00022256  00000-0  14116-2 0  9995,2 53932  53.2204 355.5762 0000481  63.4598 296.6443 15.08851053104972,6917.847,95.437,540.044,539.379,0.0
53932.0,STARLINK-4772,PAYLOAD,2024-08-13 09:06:11,15.08787933,7.62e-05,53.2186,352.9011,123.6616,236.4448,-0.00072101,-0.00011727,0.0,0 STARLINK-4772,1 53932U 22119AY  24226.37929481 -.00011727  00000-0 -72101-3 0  9990,2 53932  53.2186 352.9011 0000762 123.6616 236.4448 15.08787933105064,6918.04,95.441,540.432,539.377,0.0
53932.0,STARLINK-4772,PAYLOAD,2024-08-13 18:38:30,15.08799442,0.0001968,53.2183,351.1146,139.9397,220.1741,0.0011961,0.00018778,0.0,0 STARLINK-4772,1 53932U 22119AY  24226.77674701  .00018778  00000-0  11961-2 0  9993,2 53932  53.2183 351.1146 0001968 139.9397 220.1741 15.08799442105127,6918.004,95.44,541.231,538.508,0.0
53932.0,STARLINK-4772,PAYLOAD,2024-08-14 01:00:01,15.08859131,0.0003656,53.2206,349.9306,254.5634,105.4954,0.0015824,0.00025001,0.0,0 STARLINK-4772,1 53932U 22119AY  24227.04168538  .00025001  00000-0  15824-2 0  9999,2 53932  53.2206 349.9306 0003656 254.5634 105.4954 15.08859131105167,6917.822,95.436,542.216,537.158,0.0
53932.0,STARLINK-4772,PAYLOAD,2024-08-14 12:07:44,15.08875177,0.000142,53.2205,347.8506,96.488,263.6274,0.0011936,0.00018777,0.0,0 STARLINK-4772,1 53932U 22119AY  24227.50537774  .00018777  00000-0  11936-2 0  9994,2 53932  53.2205 347.8506 0001420  96.4880 263.6274 15.08875177105236,6917.773,95.435,540.62,538.656,0.0
53932.0,STARLINK-4772,PAYLOAD,2024-08-14 15:18:30,15.0888094,0.0001419,53.2185,347.2552,102.7167,257.3984,0.0011645,0.00018314,0.0,0 STARLINK-4772,1 53932U 22119AY  24227.63785362  .00018314  00000-0  11645-2 0  9990,2 53932  53.2185 347.2552 0001419 102.7167 257.3984 15.08880940105686,6917.755,95.435,540.602,538.639,0.0
53932.0,STARLINK-4772,PAYLOAD,2024-08-15 00:50:48,15.08890723,0.0001408,53.2179,345.471,103.2456,256.8693,0.00082566,0.00012895,0.0,0 STARLINK-4772,1 53932U 22119AY  24228.03528096  .00012895  00000-0  82566-3 0  9993,2 53932  53.2179 345.4710 0001408 103.2456 256.8693 15.08890723105748,6917.725,95.434,540.564,538.616,0.0
53932.0,STARLINK-4772,PAYLOAD,2024-08-16 00:41:36,15.08844047,0.0003492,53.2174,341.0087,84.3056,275.8334,0.00072177,0.00011219,0.0,0 STARLINK-4772,1 53932U 22119AY  24229.02889295  .00011219  00000-0  72177-3 0  9990,2 53932  53.2174 341.0087 0003492  84.3056 275.8334 15.08844047105462,6917.868,95.437,542.149,537.317,0.0
53932.0,STARLINK-4772,PAYLOAD,2024-08-17 16:26:14,15.08844097,2.19e-05,53.2177,333.5735,177.163,182.9363,0.00052835,8.132e-05,0.0,0 STARLINK-4772,1 53932U 22119AY  24230.68488530  .00008132  00000-0  52835-3 0  9990,2 53932  53.2177 333.5735 0000219 177.1630 182.9363 15.08844097105717,6917.868,95.437,539.884,539.581,0.0
53932.0,STARLINK-4772,PAYLOAD,2024-08-18 13:06:15,15.08847889,0.0001428,53.2164,329.7024,90.1327,269.9829,0.00033004,4.97e-05,0.0,0 STARLINK-4772,1 53932U 22119AY  24231.54600752  .00004970  00000-0  33004-3 0  9991,2 53932  53.2164 329.7024 0001428  90.1327 269.9829 15.08847889105840,6917.856,95.437,540.709,538.733,0.0
53932.0,STARLINK-4772,PAYLOAD,2024-08-19 12:57:02,15.08827154,0.0001213,53.2181,325.2468,102.7199,257.3929,-2.6047e-05,-7.02e-06,0.0,0 STARLINK-4772,1 53932U 22119AY  24232.53961769 -.00000702  00000-0 -26047-4 0  9990,2 53932  53.2181 325.2468 0001213 102.7199 257.3929 15.08827154105992,6917.92,95.438,540.624,538.946,0.0
53932.0,STARLINK-4772,PAYLOAD,2024-08-20 04:50:54,15.08832126,9.91e-05,53.2194,322.2742,121.8939,238.215,2.7452e-06,-2.44e-06,0.0,0 STARLINK-4772,1 53932U 22119AY  24233.20201608 -.00000244  00000-0  27452-5 0  9996,2 53932  53.2194 322.2742 0000991 121.8939 238.2150 15.08832126106095,6917.904,95.438,540.455,539.084,0.0
53932.0,STARLINK-4772,PAYLOAD,2024-08-20 11:12:25,15.08852431,0.0001585,53.2198,321.0869,124.6822,235.4319,-1.088e-05,-4.61e-06,0.0,0 STARLINK-4772,1 53932U 22119AY  24233.46696407 -.00000461  00000-0 -10880-4 0  9997,2 53932  53.2198 321.0869 0001585 124.6822 235.4319 15.08852431106130,6917.842,95.437,540.804,538.611,0.0
53932.0,STARLINK-4772,PAYLOAD,2024-08-20 12:47:48,15.08850179,0.0001554,53.2178,320.7889,116.712,243.4031,5.6087e-05,6.05e-06,0.0,0 STARLINK-4772,1 53932U 22119AY  24233.53320427  .00000605  00000-0  56087-4 0  9998,2 53932  53.2178 320.7889 0001554 116.7120 243.4031 15.08850179106570,6917.849,95.437,540.789,538.639,0.0
53932.0,STARLINK-4772,PAYLOAD,2024-08-21 12:38:37,15.08828035,0.0001547,53.2173,316.3285,111.6447,248.471,7.0826e-05,8.39e-06,0.0,0 STARLINK-4772,1 53932U 22119AY  24234.52681722  .00000839  00000-0  70826-4 0  9992,2 53932  53.2173 316.3285 0001547 111.6447 248.4710 15.08828035106298,6917.917,95.438,540.852,538.712,0.0
